{
  "type": "FeatureCollection",
  "features": [
    {
      "type": "Feature",
      "properties": {
        "norad_id": 31307,
        "name": "GALAXY 17 (G-17)",
        "group": "intelsat",
        "lat": -0.5007061588106616,
        "lon": 70.2974316358045,
        "alt_km": 35811.15440505532,
        "timestamp": "2025-12-11T05:00:25.978631+00:00",
        "meta_object_name": "GALAXY 17 (G-17)",
        "meta_object_id": "2007-016B",
        "meta_epoch": "2025-12-10T19:59:09.047040",
        "meta_mean_motion": 1.00272524,
        "meta_eccentricity": 0.00059721,
        "meta_inclination": 2.4955,
        "meta_ra_of_asc_node": 82.3051,
        "meta_arg_of_pericenter": 163.1461,
        "meta_mean_anomaly": 49.1509,
        "meta_ephemeris_type": 0,
        "meta_classification_type": "U",
        "meta_norad_cat_id": 31307,
        "meta_element_set_no": 999,
        "meta_rev_at_epoch": 6791,
        "meta_bstar": 0,
        "meta_mean_motion_dot": -2.02e-06,
        "meta_mean_motion_ddot": 0,
        "tle_line1": "1 31307U 07016B   25344.83274360 -.00000202  00000+0  00000+0 0  9992",
        "tle_line2": "2 31307   2.4955  82.3051 0005972 163.1461  49.1509  1.00272524 67919"
      },
      "geometry": {
        "type": "Point",
        "coordinates": [
          70.2974316358045,
          -0.5007061588106616
        ]
      }
    },
    {
      "type": "Feature",
      "properties": {
        "norad_id": 31862,
        "name": "DIRECTV 10",
        "group": "intelsat",
        "lat": 0.0017496998926639794,
        "lon": 52.48961849423252,
        "alt_km": 35788.20880087769,
        "timestamp": "2025-12-11T05:00:25.978643+00:00",
        "meta_object_name": "DIRECTV 10",
        "meta_object_id": "2007-032A",
        "meta_epoch": "2025-12-10T19:53:54.549312",
        "meta_mean_motion": 1.00270298,
        "meta_eccentricity": 4.46e-05,
        "meta_inclination": 0.0203,
        "meta_ra_of_asc_node": 160.5046,
        "meta_arg_of_pericenter": 46.8273,
        "meta_mean_anomaly": 68.1606,
        "meta_ephemeris_type": 0,
        "meta_classification_type": "U",
        "meta_norad_cat_id": 31862,
        "meta_element_set_no": 999,
        "meta_rev_at_epoch": 4370,
        "meta_bstar": 0,
        "meta_mean_motion_dot": -9.8e-07,
        "meta_mean_motion_ddot": 0,
        "tle_line1": "1 31862U 07032A   25344.82910358 -.00000098  00000+0  00000+0 0  9992",
        "tle_line2": "2 31862   0.0203 160.5046 0000446  46.8273  68.1606  1.00270298 43703"
      },
      "geometry": {
        "type": "Point",
        "coordinates": [
          52.48961849423252,
          0.0017496998926639794
        ]
      }
    },
    {
      "type": "Feature",
      "properties": {
        "norad_id": 32253,
        "name": "INTELSAT 11 (IS-11)",
        "group": "intelsat",
        "lat": -2.4512468611690705,
        "lon": 27.80179440882965,
        "alt_km": 36163.08120608673,
        "timestamp": "2025-12-11T05:00:25.978655+00:00",
        "meta_object_name": "INTELSAT 11 (IS-11)",
        "meta_object_id": "2007-044B",
        "meta_epoch": "2025-12-10T14:39:34.689024",
        "meta_mean_motion": 0.99047904,
        "meta_eccentricity": 0.00090202,
        "meta_inclination": 3.0749,
        "meta_ra_of_asc_node": 80.9985,
        "meta_arg_of_pericenter": 165.1974,
        "meta_mean_anomaly": 288.3334,
        "meta_ephemeris_type": 0,
        "meta_classification_type": "U",
        "meta_norad_cat_id": 32253,
        "meta_element_set_no": 999,
        "meta_rev_at_epoch": 6658,
        "meta_bstar": 0,
        "meta_mean_motion_dot": 7.9e-07,
        "meta_mean_motion_ddot": 0,
        "tle_line1": "1 32253U 07044B   25344.61081816  .00000079  00000+0  00000+0 0  9993",
        "tle_line2": "2 32253   3.0749  80.9985 0009020 165.1974 288.3334  0.99047904 66581"
      },
      "geometry": {
        "type": "Point",
        "coordinates": [
          27.80179440882965,
          -2.4512468611690705
        ]
      }
    },
    {
      "type": "Feature",
      "properties": {
        "norad_id": 32388,
        "name": "HORIZONS-2",
        "group": "intelsat",
        "lat": -0.03589808999686307,
        "lon": 81.49970515335373,
        "alt_km": 35807.30836196216,
        "timestamp": "2025-12-11T05:00:25.978667+00:00",
        "meta_object_name": "HORIZONS-2",
        "meta_object_id": "2007-063B",
        "meta_epoch": "2025-12-10T20:02:23.735616",
        "meta_mean_motion": 1.00270237,
        "meta_eccentricity": 0.00049734,
        "meta_inclination": 2.1168,
        "meta_ra_of_asc_node": 82.9802,
        "meta_arg_of_pericenter": 188.2282,
        "meta_mean_anomaly": 35.4076,
        "meta_ephemeris_type": 0,
        "meta_classification_type": "U",
        "meta_norad_cat_id": 32388,
        "meta_element_set_no": 999,
        "meta_rev_at_epoch": 6592,
        "meta_bstar": 0,
        "meta_mean_motion_dot": -2.48e-06,
        "meta_mean_motion_ddot": 0,
        "tle_line1": "1 32388U 07063B   25344.83499694 -.00000248  00000+0  00000+0 0  9993",
        "tle_line2": "2 32388   2.1168  82.9802 0004973 188.2282  35.4076  1.00270237 65926"
      },
      "geometry": {
        "type": "Point",
        "coordinates": [
          81.49970515335373,
          -0.03589808999686307
        ]
      }
    },
    {
      "type": "Feature",
      "properties": {
        "norad_id": 32729,
        "name": "DIRECTV 11",
        "group": "intelsat",
        "lat": 0.008091211901459302,
        "lon": 56.074480334454414,
        "alt_km": 35788.045693263426,
        "timestamp": "2025-12-11T05:00:25.978678+00:00",
        "meta_object_name": "DIRECTV 11",
        "meta_object_id": "2008-013A",
        "meta_epoch": "2025-12-10T19:55:09.428736",
        "meta_mean_motion": 1.00269537,
        "meta_eccentricity": 4.841e-05,
        "meta_inclination": 0.0266,
        "meta_ra_of_asc_node": 165.676,
        "meta_arg_of_pericenter": 20.8459,
        "meta_mean_anomaly": 92.8714,
        "meta_ephemeris_type": 0,
        "meta_classification_type": "U",
        "meta_norad_cat_id": 32729,
        "meta_element_set_no": 999,
        "meta_rev_at_epoch": 4370,
        "meta_bstar": 0,
        "meta_mean_motion_dot": -1.2e-06,
        "meta_mean_motion_ddot": 0,
        "tle_line1": "1 32729U 08013A   25344.82997024 -.00000120  00000+0  00000+0 0  9996",
        "tle_line2": "2 32729   0.0266 165.6760 0000484  20.8459  92.8714  1.00269537 43702"
      },
      "geometry": {
        "type": "Point",
        "coordinates": [
          56.074480334454414,
          0.008091211901459302
        ]
      }
    },
    {
      "type": "Feature",
      "properties": {
        "norad_id": 32951,
        "name": "GALAXY 18 (G-18)",
        "group": "intelsat",
        "lat": 0.031549525104855945,
        "lon": 32.305008519516754,
        "alt_km": 35793.94602003551,
        "timestamp": "2025-12-11T05:00:25.978689+00:00",
        "meta_object_name": "GALAXY 18 (G-18)",
        "meta_object_id": "2008-024A",
        "meta_epoch": "2025-12-10T18:05:27.436992",
        "meta_mean_motion": 1.00273034,
        "meta_eccentricity": 0.00031187,
        "meta_inclination": 0.0175,
        "meta_ra_of_asc_node": 311.7173,
        "meta_arg_of_pericenter": 311.9495,
        "meta_mean_anomaly": 324.4196,
        "meta_ephemeris_type": 0,
        "meta_classification_type": "U",
        "meta_norad_cat_id": 32951,
        "meta_element_set_no": 999,
        "meta_rev_at_epoch": 4396,
        "meta_bstar": 0,
        "meta_mean_motion_dot": 3e-07,
        "meta_mean_motion_ddot": 0,
        "tle_line1": "1 32951U 08024A   25344.75378978  .00000030  00000+0  00000+0 0  9997",
        "tle_line2": "2 32951   0.0175 311.7173 0003118 311.9495 324.4196  1.00273034 43964"
      },
      "geometry": {
        "type": "Point",
        "coordinates": [
          32.305008519516754,
          0.031549525104855945
        ]
      }
    },
    {
      "type": "Feature",
      "properties": {
        "norad_id": 33153,
        "name": "INTELSAT 25 (IS-25)",
        "group": "intelsat",
        "lat": 1.4731810638763925,
        "lon": 123.71685548993898,
        "alt_km": 35804.92734619159,
        "timestamp": "2025-12-11T05:00:25.978701+00:00",
        "meta_object_name": "INTELSAT 25 (IS-25)",
        "meta_object_id": "2008-034A",
        "meta_epoch": "2025-12-10T20:14:30.076224",
        "meta_mean_motion": 1.00270136,
        "meta_eccentricity": 0.00053477,
        "meta_inclination": 2.2231,
        "meta_ra_of_asc_node": 82.6691,
        "meta_arg_of_pericenter": 186.1834,
        "meta_mean_anomaly": 83.082,
        "meta_ephemeris_type": 0,
        "meta_classification_type": "U",
        "meta_norad_cat_id": 33153,
        "meta_element_set_no": 999,
        "meta_rev_at_epoch": 6380,
        "meta_bstar": 0,
        "meta_mean_motion_dot": -2.19e-06,
        "meta_mean_motion_ddot": 0,
        "tle_line1": "1 33153U 08034A   25344.84340366 -.00000219  00000+0  00000+0 0  9993",
        "tle_line2": "2 33153   2.2231  82.6691 0005347 186.1834  83.0820  1.00270136 63807"
      },
      "geometry": {
        "type": "Point",
        "coordinates": [
          123.71685548993898,
          1.4731810638763925
        ]
      }
    }
  ]
}